NORAD_CAT_ID,OBJECT_NAME,OBJECT_TYPE,EPOCH,MEAN_MOTION,ECCENTRICITY,INCLINATION,RA_OF_ASC_NODE,ARG_OF_PERICENTER,MEAN_ANOMALY,BSTAR,MEAN_MOTION_DOT,MEAN_MOTION_DDOT,TLE_LINE0,TLE_LINE1,TLE_LINE2,SEMIMAJOR_AXIS,PERIOD,APOGEE,PERIGEE,DECAYED
55299.0,STARLINK-5270,PAYLOAD,2023-08-26 00:13:33,14.98325896,0.0003171,70.0002,200.8571,268.2633,91.8162,-1.6249e-05,-2.87e-06,0.0,0 STARLINK-5270,1 55299U 23010AG  23238.00941992 -.00000287  00000-0 -16249-4 0  9993,2 55299  70.0002 200.8571 0003171 268.2633  91.8162 14.98325896 34151,6950.206,96.107,574.274,569.867,0.0
55299.0,STARLINK-5270,PAYLOAD,2023-08-26 08:14:14,14.98327704,0.0003126,70.0003,200.0154,267.4572,92.623,6.5817e-06,-1.4e-07,0.0,0 STARLINK-5270,1 55299U 23010AG  23238.34321856 -.00000014  00000-0  65817-5 0  9994,2 55299  70.0003 200.0154 0003126 267.4572  92.6230 14.98327704 35396,6950.2,96.107,574.238,569.892,0.0
55299.0,STARLINK-5270,PAYLOAD,2023-08-27 01:51:42,14.98331318,0.0003158,69.9999,198.1639,262.686,97.394,-1.3438e-05,-2.53e-06,0.0,0 STARLINK-5270,1 55299U 23010AG  23239.07757612 -.00000253  00000-0 -13438-4 0  9995,2 55299  69.9999 198.1639 0003158 262.6860  97.3940 14.98331318 34311,6950.189,96.107,574.249,569.859,0.0
55299.0,STARLINK-5270,PAYLOAD,2023-08-27 08:16:14,14.98332918,0.0003147,70.0,197.4906,262.1979,97.8823,5.795e-06,-2.4e-07,0.0,0 STARLINK-5270,1 55299U 23010AG  23239.34461412 -.00000024  00000-0  57950-5 0  9998,2 55299  70.0000 197.4906 0003147 262.1979  97.8823 14.98332918 35548,6950.184,96.107,574.236,569.862,0.0
55299.0,STARLINK-5270,PAYLOAD,2023-08-28 03:29:51,14.98327781,0.0003268,69.9996,195.4696,267.9606,92.1179,8.5824e-07,-8.3e-07,0.0,0 STARLINK-5270,1 55299U 23010AG  23240.14573786 -.00000083  00000-0  85824-6 0  9993,2 55299  69.9996 195.4696 0003268 267.9606  92.1179 14.98327781 34472,6950.2,96.107,574.336,569.793,0.0
55299.0,STARLINK-5270,PAYLOAD,2023-08-28 16:18:56,14.98329449,0.0003221,69.9998,194.1232,268.1844,91.8946,1.8739e-05,1.31e-06,0.0,0 STARLINK-5270,1 55299U 23010AG  23240.67981626  .00000131  00000-0  18739-4 0  9999,2 55299  69.9998 194.1232 0003221 268.1844  91.8946 14.98329449 35744,6950.195,96.107,574.298,569.821,0.0
55299.0,STARLINK-5270,PAYLOAD,2023-08-29 06:44:08,14.98341485,0.0003268,69.9997,192.6088,268.0155,92.063,-6.7426e-05,-8.98e-06,0.0,0 STARLINK-5270,1 55299U 23010AG  23241.28065018 -.00000898  00000-0 -67426-4 0  9994,2 55299  69.9997 192.6088 0003268 268.0155  92.0630 14.98341485 34645,6950.157,96.106,574.294,569.751,0.0
55299.0,STARLINK-5270,PAYLOAD,2023-08-30 00:21:37,14.98333037,0.0003242,69.9996,190.7575,268.8643,91.2144,-0.00016088,-2.012e-05,0.0,0 STARLINK-5270,1 55299U 23010AG  23242.01501910 -.00002012  00000-0 -16088-3 0  9999,2 55299  69.9996 190.7575 0003242 268.8643  91.2144 14.98333037 34753,6950.183,96.107,574.302,569.795,0.0
55299.0,STARLINK-5270,PAYLOAD,2023-08-30 06:46:09,14.98327809,0.0003139,69.9997,190.0841,269.3485,90.7314,-7.1625e-06,-1.78e-06,0.0,0 STARLINK-5270,1 55299U 23010AG  23242.28205812 -.00000178  00000-0 -71625-5 0  9991,2 55299  69.9997 190.0841 0003139 269.3485  90.7314 14.98327809 35987,6950.2,96.107,574.246,569.883,0.0
55299.0,STARLINK-5270,PAYLOAD,2023-09-01 02:01:49,14.98339292,0.0002874,70.0009,185.5452,282.7033,77.3805,-0.00067751,-8.169e-05,0.0,0 STARLINK-5270,1 55299U 23010AG  23244.08459695 -.00008169  00000-0 -67751-3 0  9992,2 55299  70.0009 185.5452 0002874 282.7033  77.3805 14.98339292 35068,6950.164,96.106,574.027,570.032,0.0
55299.0,STARLINK-5270,PAYLOAD,2023-09-01 10:02:27,14.98349341,0.0002918,69.9995,184.6986,271.6431,88.4394,-0.00023394,-2.885e-05,0.0,0 STARLINK-5270,1 55299U 23010AG  23244.41836845 -.00002885  00000-0 -23394-3 0  9999,2 55299  69.9995 184.6986 0002918 271.6431  88.4394 14.98349341 35117,6950.133,96.106,574.026,569.97,0.0
55299.0,STARLINK-5270,PAYLOAD,2023-09-01 13:14:44,14.98325334,0.0003,69.9997,184.3623,268.9439,91.1377,-4.0883e-05,-5.81e-06,0.0,0 STARLINK-5270,1 55299U 23010AG  23244.55189970 -.00000581  00000-0 -40883-4 0  9998,2 55299  69.9997 184.3623 0003000 268.9439  91.1377 14.98325334 36326,6950.207,96.107,574.157,569.987,0.0
55299.0,STARLINK-5270,PAYLOAD,2023-09-01 19:39:16,14.98330284,0.0002909,69.9996,183.6884,270.0925,89.9901,-1.618e-05,-2.86e-06,0.0,0 STARLINK-5270,1 55299U 23010AG  23244.81893662 -.00000286  00000-0 -16180-4 0  9992,2 55299  69.9996 183.6884 0002909 270.0925  89.9901 14.98330284 35177,6950.192,96.107,574.079,570.035,0.0
55299.0,STARLINK-5270,PAYLOAD,2023-09-01 21:15:24,14.98329961,0.0002908,69.9996,183.5201,270.0959,89.9866,-1.9557e-05,-3.26e-06,0.0,0 STARLINK-5270,1 55299U 23010AG  23244.88569685 -.00000326  00000-0 -19557-4 0  9990,2 55299  69.9996 183.5201 0002908 270.0959  89.9866 14.98329961 36378,6950.193,96.107,574.079,570.037,0.0
55299.0,STARLINK-5270,PAYLOAD,2023-09-02 10:04:27,14.98338615,0.0002917,69.9996,182.1737,271.2429,88.8396,7.243e-05,7.72e-06,0.0,0 STARLINK-5270,1 55299U 23010AG  23245.41976726  .00000772  00000-0  72430-4 0  9990,2 55299  69.9996 182.1737 0002917 271.2429  88.8396 14.98338615 35261,6950.166,96.106,574.059,570.004,0.0
55299.0,STARLINK-5270,PAYLOAD,2023-09-02 13:16:45,14.9831796,0.0003001,69.9997,181.837,270.0265,90.055,-0.00015545,-1.947e-05,0.0,0 STARLINK-5270,1 55299U 23010AG  23245.55330603 -.00001947  00000-0 -15545-3 0  9993,2 55299  69.9997 181.8370 0003001 270.0265  90.0550 14.98317960 36472,6950.23,96.108,574.181,570.009,0.0
55299.0,STARLINK-5270,PAYLOAD,2023-09-02 18:05:09,14.98325395,0.0002892,69.9997,181.3321,268.6753,91.4074,-6.9004e-05,-9.16e-06,0.0,0 STARLINK-5270,1 55299U 23010AG  23245.75357984 -.00000916  00000-0 -69004-4 0  9991,2 55299  69.9997 181.3321 0002892 268.6753  91.4074 14.98325395 35314,6950.207,96.107,574.082,570.062,0.0
55299.0,STARLINK-5270,PAYLOAD,2023-09-02 21:17:25,14.98328456,0.0002964,69.9996,180.9954,269.9453,90.1366,-3.3805e-05,-4.96e-06,0.0,0 STARLINK-5270,1 55299U 23010AG  23245.88709715 -.00000496  00000-0 -33805-4 0  9991,2 55299  69.9996 180.9954 0002964 269.9453  90.1366 14.98328456 36526,6950.198,96.107,574.123,570.003,0.0
55299.0,STARLINK-5270,PAYLOAD,2023-09-03 02:05:49,14.98330893,0.0002898,69.9998,180.4904,269.668,90.4147,4.8767e-06,-3.5e-07,0.0,0 STARLINK-5270,1 55299U 23010AG  23246.08737455 -.00000035  00000-0  48767-5 0  9998,2 55299  69.9998 180.4904 0002898 269.6680  90.4147 14.98330893 35362,6950.19,96.107,574.069,570.041,0.0
55299.0,STARLINK-5270,PAYLOAD,2023-09-03 13:18:45,14.98326646,0.0002915,69.9996,179.312,268.9492,91.1333,-7.3031e-05,-9.64e-06,0.0,0 STARLINK-5270,1 55299U 23010AG  23246.55469807 -.00000964  00000-0 -73031-4 0  9996,2 55299  69.9996 179.3120 0002915 268.9492  91.1333 14.98326646 36626,6950.203,96.107,574.094,570.042,0.0
55299.0,STARLINK-5270,PAYLOAD,2023-09-03 18:07:10,14.98322622,0.0002917,69.9996,178.8071,268.3497,91.7328,-9.6806e-05,-1.248e-05,0.0,0 STARLINK-5270,1 55299U 23010AG  23246.75498171 -.00001248  00000-0 -96806-4 0  9995,2 55299  69.9996 178.8071 0002917 268.3497  91.7328 14.98322622 35467,6950.216,96.107,574.108,570.053,0.0
55299.0,STARLINK-5270,PAYLOAD,2023-09-04 10:08:30,14.98327845,0.0002949,69.9998,177.1241,267.7557,92.3265,4.1588e-05,4.03e-06,0.0,0 STARLINK-5270,1 55299U 23010AG  23247.42257578  .00000403  00000-0  41588-4 0  9991,2 55299  69.9998 177.1241 0002949 267.7557  92.3265 14.98327845 35565,6950.2,96.107,574.114,570.015,0.0
55299.0,STARLINK-5270,PAYLOAD,2023-09-04 13:20:46,14.98324963,0.0002948,69.9998,176.7873,267.7852,92.2969,8.4596e-06,8e-08,0.0,0 STARLINK-5270,1 55299U 23010AG  23247.55609870  .00000008  00000-0  84596-5 0  9999,2 55299  69.9998 176.7873 0002948 267.7852  92.2969 14.98324963 36770,6950.208,96.107,574.122,570.025,0.0
55299.0,STARLINK-5270,PAYLOAD,2023-09-05 05:22:07,14.98333446,0.0002945,69.9999,175.1043,267.944,92.1382,6.6914e-05,7.06e-06,0.0,0 STARLINK-5270,1 55299U 23010AG  23248.22369252  .00000706  00000-0  66914-4 0  9999,2 55299  69.9999 175.1043 0002945 267.9440  92.1382 14.98333446 36870,6950.182,96.107,574.094,570.0,0.0
55299.0,STARLINK-5270,PAYLOAD,2023-09-05 19:47:19,14.98327824,0.0002905,69.9999,173.5896,268.2929,91.7897,7.3139e-05,7.8e-06,0.0,0 STARLINK-5270,1 55299U 23010AG  23248.82453497  .00000780  00000-0  73139-4 0  9999,2 55299  69.9999 173.5896 0002905 268.2929  91.7897 14.98327824 35777,6950.2,96.107,574.084,570.046,0.0
55299.0,STARLINK-5270,PAYLOAD,2023-09-06 05:24:07,14.98343984,0.000301,70.0,172.5796,268.0522,92.0292,6.5499e-06,-1.5e-07,0.0,0 STARLINK-5270,1 55299U 23010AG  23249.22508499 -.00000015  00000-0  65499-5 0  9990,2 55299  70.0000 172.5796 0003010 268.0522  92.0292 14.98343984 35831,6950.15,96.106,574.107,569.923,0.0
55299.0,STARLINK-5270,PAYLOAD,2023-09-06 11:48:39,14.98334906,0.0002957,70.0,171.9067,267.6522,92.4298,8.7465e-05,9.51e-06,0.0,0 STARLINK-5270,1 55299U 23010AG  23249.49212830  .00000951  00000-0  87465-4 0  9994,2 55299  70.0000 171.9067 0002957 267.6522  92.4298 14.98334906 37060,6950.178,96.107,574.098,569.988,0.0
55299.0,STARLINK-5270,PAYLOAD,2023-09-07 00:37:45,14.98323565,0.0003088,70.0,170.56,266.8748,93.2058,-7.0477e-05,-9.34e-06,0.0,0 STARLINK-5270,1 55299U 23010AG  23250.02621954 -.00000934  00000-0 -70477-4 0  9994,2 55299  70.0000 170.5600 0003088 266.8748  93.2058 14.98323565 35953,6950.213,96.107,574.224,569.932,0.0
55299.0,STARLINK-5270,PAYLOAD,2023-09-07 11:50:41,14.98326958,0.0003248,69.9993,169.3811,270.1248,89.9539,6.0689e-05,6.31e-06,0.0,0 STARLINK-5270,1 55299U 23010AG  23250.49353382  .00000631  00000-0  60689-4 0  9998,2 55299  69.9993 169.3811 0003248 270.1248  89.9539 14.98326958 37218,6950.202,96.107,574.325,569.81,0.0
55299.0,STARLINK-5270,PAYLOAD,2023-09-08 03:52:01,14.98337504,0.0003141,69.9999,167.699,267.7735,92.3064,-4.0434e-05,-5.76e-06,0.0,0 STARLINK-5270,1 55299U 23010AG  23251.16112848 -.00000576  00000-0 -40434-4 0  9999,2 55299  69.9999 167.6990 0003141 267.7735  92.3064 14.98337504 36127,6950.17,96.107,574.218,569.852,0.0
